{
  "norad_id": 44873,
  "name": "CSG-1",
  "history": [
    {
      "epoch": "2026-03-28T21:59:32.845632Z",
      "apogee_km": 623.4781291514746,
      "perigee_km": 621.576748689863,
      "latitude_deg": -2.8724856904715782e-05,
      "longitude_deg": 116.46051310536689,
      "height_km": 625.4831829880388,
      "semi_major_axis_km": 7000.6644389206685,
      "eccentricity": 0.0001358,
      "inclination_deg": 97.8879,
      "raan_deg": 272.6773,
      "arg_perigee_deg": 85.9653,
      "mean_anomaly_deg": 274.1715,
      "mean_motion_rev_day": 14.82155842
    },
    {
      "epoch": "2026-03-29T04:28:24.455424Z",
      "apogee_km": 623.4773131058801,
      "perigee_km": 621.5717330393009,
      "latitude_deg": 4.137648181091468e-05,
      "longitude_deg": 19.245397383892076,
      "height_km": 625.4762858545076,
      "semi_major_axis_km": 7000.66152307259,
      "eccentricity": 0.0001361,
      "inclination_deg": 97.888,
      "raan_deg": 272.9434,
      "arg_perigee_deg": 85.7352,
      "mean_anomaly_deg": 274.4017,
      "mean_motion_rev_day": 14.82156768
    },
    {
      "epoch": "2026-03-30T04:46:37.964064Z",
      "apogee_km": 623.4721347520463,
      "perigee_km": 621.5679560356994,
      "latitude_deg": 5.0332604016926304e-05,
      "longitude_deg": 14.689091148702147,
      "height_km": 625.4738052559151,
      "semi_major_axis_km": 7000.657045393873,
      "eccentricity": 0.000136,
      "inclination_deg": 97.8881,
      "raan_deg": 273.9415,
      "arg_perigee_deg": 85.8526,
      "mean_anomaly_deg": 274.2843,
      "mean_motion_rev_day": 14.8215819
    },
    {
      "epoch": "2026-03-30T06:23:50.867808Z",
      "apogee_km": 623.4726148298842,
      "perigee_km": 621.5663360716189,
      "latitude_deg": -6.940179633454138e-05,
      "longitude_deg": -9.61459921988633,
      "height_km": 625.4756604312792,
      "semi_major_axis_km": 7000.656475450752,
      "eccentricity": 0.00013615,
      "inclination_deg": 97.8881,
      "raan_deg": 274.0081,
      "arg_perigee_deg": 86.0024,
      "mean_anomaly_deg": 274.1344,
      "mean_motion_rev_day": 14.82158371
    },
    {
      "epoch": "2026-03-30T14:29:55.339872Z",
      "apogee_km": 623.467636245753,
      "perigee_km": 621.56737858626,
      "latitude_deg": -1.600670053315198e-05,
      "longitude_deg": -131.13324598413362,
      "height_km": 625.4701805036756,
      "semi_major_axis_km": 7000.654507416006,
      "eccentricity": 0.00013572,
      "inclination_deg": 97.888,
      "raan_deg": 274.3408,
      "arg_perigee_deg": 85.7772,
      "mean_anomaly_deg": 274.3596,
      "mean_motion_rev_day": 14.82158996
    },
    {
      "epoch": "2026-03-30T22:35:59.803296Z",
      "apogee_km": 623.4643598662597,
      "perigee_km": 621.5667629829586,
      "latitude_deg": 4.079601980823197e-06,
      "longitude_deg": 107.34814794012362,
      "height_km": 625.4696023128693,
      "semi_major_axis_km": 7000.652561424608,
      "eccentricity": 0.00013553,
      "inclination_deg": 97.8881,
      "raan_deg": 274.6735,
      "arg_perigee_deg": 85.8542,
      "mean_anomaly_deg": 274.2826,
      "mean_motion_rev_day": 14.82159614
    },
    {
      "epoch": "2026-03-31T19:39:47.388672Z",
      "apogee_km": 623.4464301803027,
      "perigee_km": 621.5758569963364,
      "latitude_deg": 2.964781914459549e-05,
      "longitude_deg": 151.399837602378,
      "height_km": 625.4620650889345,
      "semi_major_axis_km": 7000.648143588319,
      "eccentricity": 0.0001336,
      "inclination_deg": 97.8881,
      "raan_deg": 275.5385,
      "arg_perigee_deg": 85.6007,
      "mean_anomaly_deg": 274.5359,
      "mean_motion_rev_day": 14.82161017
    },
    {
      "epoch": "2026-04-01T19:58:00.665760Z",
      "apogee_km": 623.4324915062552,
      "perigee_km": 621.5857210634185,
      "latitude_deg": 1.1890175261077894e-05,
      "longitude_deg": 146.84450312593017,
      "height_km": 625.4709797299716,
      "semi_major_axis_km": 7000.646106284837,
      "eccentricity": 0.0001319,
      "inclination_deg": 97.8881,
      "raan_deg": 276.5366,
      "arg_perigee_deg": 86.2232,
      "mean_anomaly_deg": 273.9132,
      "mean_motion_rev_day": 14.82161664
    },
    {
      "epoch": "2026-04-01T21:35:13.547040Z",
      "apogee_km": 623.4314922619542,
      "perigee_km": 621.5861220271918,
      "latitude_deg": 2.2938788607416442e-05,
      "longitude_deg": 122.54088859719104,
      "height_km": 625.4710386514893,
      "semi_major_axis_km": 7000.645807144573,
      "eccentricity": 0.0001318,
      "inclination_deg": 97.8881,
      "raan_deg": 276.6032,
      "arg_perigee_deg": 86.2426,
      "mean_anomaly_deg": 273.8938,
      "mean_motion_rev_day": 14.82161759
    },
    {
      "epoch": "2026-04-04T07:54:59.264640Z",
      "apogee_km": 623.4605454616913,
      "perigee_km": 621.6277671349717,
      "latitude_deg": 3.3798253221775842e-06,
      "longitude_deg": -32.399700215275004,
      "height_km": 625.4572075820168,
      "semi_major_axis_km": 7000.681156298331,
      "eccentricity": 0.0001309,
      "inclination_deg": 97.8883,
      "raan_deg": 278.9986,
      "arg_perigee_deg": 83.1283,
      "mean_anomaly_deg": 277.0079,
      "mean_motion_rev_day": 14.82150533
    },
    {
      "epoch": "2026-04-05T14:42:04.816800Z",
      "apogee_km": 623.4350769009334,
      "perigee_km": 621.6408039137059,
      "latitude_deg": 9.789423803181807e-06,
      "longitude_deg": -134.1728267489181,
      "height_km": 625.4565223016882,
      "semi_major_axis_km": 7000.674940407319,
      "eccentricity": 0.00012815,
      "inclination_deg": 97.8883,
      "raan_deg": 280.2629,
      "arg_perigee_deg": 83.3328,
      "mean_anomaly_deg": 276.8031,
      "mean_motion_rev_day": 14.82152507
    },
    {
      "epoch": "2026-04-05T19:33:43.571232Z",
      "apogee_km": 623.4322339321807,
      "perigee_km": 621.6414615619269,
      "latitude_deg": 3.393904618382346e-05,
      "longitude_deg": 152.91566823034518,
      "height_km": 625.4578242750632,
      "semi_major_axis_km": 7000.6738477470535,
      "eccentricity": 0.0001279,
      "inclination_deg": 97.8883,
      "raan_deg": 280.4625,
      "arg_perigee_deg": 83.4739,
      "mean_anomaly_deg": 276.662,
      "mean_motion_rev_day": 14.82152854
    },
    {
      "epoch": "2026-04-06T05:17:01.065408Z",
      "apogee_km": 623.4248625720329,
      "perigee_km": 621.646691686642,
      "latitude_deg": -5.95928825000893e-05,
      "longitude_deg": 7.0927389490303465,
      "height_km": 625.4555443072315,
      "semi_major_axis_km": 7000.672777129337,
      "eccentricity": 0.000127,
      "inclination_deg": 97.8883,
      "raan_deg": 280.8617,
      "arg_perigee_deg": 83.3471,
      "mean_anomaly_deg": 276.7886,
      "mean_motion_rev_day": 14.82153194
    },
    {
      "epoch": "2026-04-07T13:41:19.290624Z",
      "apogee_km": 623.4042228835842,
      "perigee_km": 621.65643627808,
      "latitude_deg": 5.605049194710184e-05,
      "longitude_deg": -118.98324762471246,
      "height_km": 625.4693236353847,
      "semi_major_axis_km": 7000.667329580831,
      "eccentricity": 0.00012483,
      "inclination_deg": 97.8884,
      "raan_deg": 282.1925,
      "arg_perigee_deg": 84.4976,
      "mean_anomaly_deg": 275.638,
      "mean_motion_rev_day": 14.82154924
    },
    {
      "epoch": "2026-04-07T20:10:10.922880Z",
      "apogee_km": 623.4023491229573,
      "perigee_km": 621.65638293127,
      "latitude_deg": 7.025425972372951e-05,
      "longitude_deg": 143.80164964596332,
      "height_km": 625.4687982175327,
      "semi_major_axis_km": 7000.666366027113,
      "eccentricity": 0.0001247,
      "inclination_deg": 97.8884,
      "raan_deg": 282.4587,
      "arg_perigee_deg": 84.5207,
      "mean_anomaly_deg": 275.6149,
      "mean_motion_rev_day": 14.8215523
    },
    {
      "epoch": "2026-04-08T13:59:32.894304Z",
      "apogee_km": 623.4058217356032,
      "perigee_km": 621.6490749989298,
      "latitude_deg": -2.8845396040641893e-05,
      "longitude_deg": -123.53984171445303,
      "height_km": 625.473983291905,
      "semi_major_axis_km": 7000.664448367266,
      "eccentricity": 0.00012547,
      "inclination_deg": 97.8885,
      "raan_deg": 283.1907,
      "arg_perigee_deg": 85.0197,
      "mean_anomaly_deg": 275.1159,
      "mean_motion_rev_day": 14.82155839
    },
    {
      "epoch": "2026-04-09T19:09:25.123680Z",
      "apogee_km": 623.4023467669322,
      "perigee_km": 621.6409810470941,
      "latitude_deg": -7.05575242619826e-05,
      "longitude_deg": 158.99249423426605,
      "height_km": 625.4708638678433,
      "semi_major_axis_km": 7000.658663907013,
      "eccentricity": 0.0001258,
      "inclination_deg": 97.8886,
      "raan_deg": 284.3884,
      "arg_perigee_deg": 85.2068,
      "mean_anomaly_deg": 274.9288,
      "mean_motion_rev_day": 14.82157676
    },
    {
      "epoch": "2026-04-10T11:21:34.093728Z",
      "apogee_km": 623.3942992716693,
      "perigee_km": 621.6441352173579,
      "latitude_deg": 2.2920471433076588e-05,
      "longitude_deg": -84.04490825262411,
      "height_km": 625.4671358684219,
      "semi_major_axis_km": 7000.656217244514,
      "eccentricity": 0.000125,
      "inclination_deg": 97.8886,
      "raan_deg": 285.0538,
      "arg_perigee_deg": 85.0918,
      "mean_anomaly_deg": 275.0438,
      "mean_motion_rev_day": 14.82158453
    },
    {
      "epoch": "2026-04-11T19:45:52.003584Z",
      "apogee_km": 623.3780808925349,
      "perigee_km": 621.6559200084239,
      "latitude_deg": 3.612261247548658e-05,
      "longitude_deg": 149.8805379571887,
      "height_km": 625.4774891698291,
      "semi_major_axis_km": 7000.654000450479,
      "eccentricity": 0.000123,
      "inclination_deg": 97.8885,
      "raan_deg": 286.3847,
      "arg_perigee_deg": 85.8485,
      "mean_anomaly_deg": 274.2869,
      "mean_motion_rev_day": 14.82159157
    }
  ]
}